1 53898U 22119N   22282.58334491 -.00050067  00000-0 -35476-3 0  9999
2 53898  53.2182 180.6504 0001519  45.3246 185.9718 15.73178148  1308